{
  "type": "FeatureCollection",
  "features": [
    {
      "type": "Feature",
      "properties": {
        "norad_id": 15362,
        "name": "NOVA 3",
        "group": "nnss",
        "lat": 77.71641924754503,
        "lon": 80.02683121246008,
        "alt_km": 1176.9392674348228,
        "timestamp": "2025-12-17T09:00:17.416907+00:00",
        "meta_object_name": "NOVA 3",
        "meta_object_id": "1984-110A",
        "meta_epoch": "2025-12-16T20:31:51.362976",
        "meta_mean_motion": 13.23045032,
        "meta_eccentricity": 0.00301972,
        "meta_inclination": 90.1224,
        "meta_ra_of_asc_node": 80.5832,
        "meta_arg_of_pericenter": 320.1729,
        "meta_mean_anomaly": 163.1657,
        "meta_ephemeris_type": 0,
        "meta_classification_type": "U",
        "meta_norad_cat_id": 15362,
        "meta_element_set_no": 999,
        "meta_rev_at_epoch": 98753,
        "meta_bstar": 0.0001418096,
        "meta_mean_motion_dot": 6.8e-07,
        "meta_mean_motion_ddot": 0,
        "tle_line1": "1 15362U 84110A   25350.85545559  .00000068  00000+0  14181-3 0  9993",
        "tle_line2": "2 15362  90.1224  80.5832 0030197 320.1729 163.1657 13.23045032987531"
      },
      "geometry": {
        "type": "Point",
        "coordinates": [
          80.02683121246008,
          77.71641924754503
        ]
      }
    },
    {
      "type": "Feature",
      "properties": {
        "norad_id": 15935,
        "name": "OSCAR 30",
        "group": "nnss",
        "lat": 13.684017341048666,
        "lon": 99.88248861393576,
        "alt_km": 1054.5194181138295,
        "timestamp": "2025-12-17T09:00:17.416930+00:00",
        "meta_object_name": "OSCAR 30",
        "meta_object_id": "1985-066A",
        "meta_epoch": "2025-12-16T20:54:51.113952",
        "meta_mean_motion": 13.36078996,
        "meta_eccentricity": 0.01693357,
        "meta_inclination": 90.1655,
        "meta_ra_of_asc_node": 99.9146,
        "meta_arg_of_pericenter": 72.3792,
        "meta_mean_anomaly": 41.3477,
        "meta_ephemeris_type": 0,
        "meta_classification_type": "U",
        "meta_norad_cat_id": 15935,
        "meta_element_set_no": 999,
        "meta_rev_at_epoch": 96508,
        "meta_bstar": 0.00011545195,
        "meta_mean_motion_dot": 7.4e-07,
        "meta_mean_motion_ddot": 0,
        "tle_line1": "1 15935U 85066A   25350.87142493  .00000074  00000+0  11545-3 0  9990",
        "tle_line2": "2 15935  90.1655  99.9146 0169335  72.3792  41.3477 13.36078996965082"
      },
      "geometry": {
        "type": "Point",
        "coordinates": [
          99.88248861393576,
          13.684017341048666
        ]
      }
    },
    {
      "type": "Feature",
      "properties": {
        "norad_id": 15936,
        "name": "OSCAR 24",
        "group": "nnss",
        "lat": 88.74198125204764,
        "lon": 84.19442890297019,
        "alt_km": 991.5140904271148,
        "timestamp": "2025-12-17T09:00:17.416949+00:00",
        "meta_object_name": "OSCAR 24",
        "meta_object_id": "1985-066B",
        "meta_epoch": "2025-12-17T00:26:05.130816",
        "meta_mean_motion": 13.35936364,
        "meta_eccentricity": 0.01704246,
        "meta_inclination": 90.1792,
        "meta_ra_of_asc_node": 92.3811,
        "meta_arg_of_pericenter": 78.4008,
        "meta_mean_anomaly": 93.6219,
        "meta_ephemeris_type": 0,
        "meta_classification_type": "U",
        "meta_norad_cat_id": 15936,
        "meta_element_set_no": 999,
        "meta_rev_at_epoch": 96700,
        "meta_bstar": 9.0846987e-05,
        "meta_mean_motion_dot": 6.1e-07,
        "meta_mean_motion_ddot": 0,
        "tle_line1": "1 15936U 85066B   25351.01811494  .00000061  00000+0  90847-4 0  9991",
        "tle_line2": "2 15936  90.1792  92.3811 0170424  78.4008  93.6219 13.35936364967008"
      },
      "geometry": {
        "type": "Point",
        "coordinates": [
          84.19442890297019,
          88.74198125204764
        ]
      }
    },
    {
      "type": "Feature",
      "properties": {
        "norad_id": 17070,
        "name": "POLAR BEAR",
        "group": "nnss",
        "lat": -40.106936371344176,
        "lon": 3.9108009640834274,
        "alt_km": 999.6653927994739,
        "timestamp": "2025-12-17T09:00:17.416961+00:00",
        "meta_object_name": "POLAR BEAR",
        "meta_object_id": "1986-088A",
        "meta_epoch": "2025-12-17T00:00:15.991776",
        "meta_mean_motion": 13.7525166,
        "meta_eccentricity": 0.00411808,
        "meta_inclination": 89.6171,
        "meta_ra_of_asc_node": 183.6032,
        "meta_arg_of_pericenter": 106.9515,
        "meta_mean_anomaly": 57.0909,
        "meta_ephemeris_type": 0,
        "meta_classification_type": "U",
        "meta_norad_cat_id": 17070,
        "meta_element_set_no": 999,
        "meta_rev_at_epoch": 96037,
        "meta_bstar": 0.00011488166,
        "meta_mean_motion_dot": 1.22e-06,
        "meta_mean_motion_ddot": 0,
        "tle_line1": "1 17070U 86088A   25351.00018509  .00000122  00000+0  11488-3 0  9993",
        "tle_line2": "2 17070  89.6171 183.6032 0041180 106.9515  57.0909 13.75251660960374"
      },
      "geometry": {
        "type": "Point",
        "coordinates": [
          3.9108009640834274,
          -40.106936371344176
        ]
      }
    },
    {
      "type": "Feature",
      "properties": {
        "norad_id": 18361,
        "name": "OSCAR 27",
        "group": "nnss",
        "lat": -27.735192093438293,
        "lon": 79.64271238069254,
        "alt_km": 1137.075535891161,
        "timestamp": "2025-12-17T09:00:17.416971+00:00",
        "meta_object_name": "OSCAR 27",
        "meta_object_id": "1987-080A",
        "meta_epoch": "2025-12-16T18:51:35.238528",
        "meta_mean_motion": 13.44907501,
        "meta_eccentricity": 0.01032286,
        "meta_inclination": 90.3742,
        "meta_ra_of_asc_node": 79.4238,
        "meta_arg_of_pericenter": 212.1097,
        "meta_mean_anomaly": 147.3737,
        "meta_ephemeris_type": 0,
        "meta_classification_type": "U",
        "meta_norad_cat_id": 18361,
        "meta_element_set_no": 999,
        "meta_rev_at_epoch": 87611,
        "meta_bstar": 0.00014292275,
        "meta_mean_motion_dot": 9.4e-07,
        "meta_mean_motion_ddot": 0,
        "tle_line1": "1 18361U 87080A   25350.78582452  .00000094  00000+0  14292-3 0  9991",
        "tle_line2": "2 18361  90.3742  79.4238 0103228 212.1097 147.3737 13.44907501876116"
      },
      "geometry": {
        "type": "Point",
        "coordinates": [
          79.64271238069254,
          -27.735192093438293
        ]
      }
    },
    {
      "type": "Feature",
      "properties": {
        "norad_id": 18362,
        "name": "OSCAR 29",
        "group": "nnss",
        "lat": -23.027470850719205,
        "lon": 80.0645335031143,
        "alt_km": 1115.3801812284,
        "timestamp": "2025-12-17T09:00:17.416982+00:00",
        "meta_object_name": "OSCAR 29",
        "meta_object_id": "1987-080B",
        "meta_epoch": "2025-12-16T19:24:57.585312",
        "meta_mean_motion": 13.44449136,
        "meta_eccentricity": 0.01041378,
        "meta_inclination": 90.3753,
        "meta_ra_of_asc_node": 79.8837,
        "meta_arg_of_pericenter": 235.3453,
        "meta_mean_anomaly": 241.768,
        "meta_ephemeris_type": 0,
        "meta_classification_type": "U",
        "meta_norad_cat_id": 18362,
        "meta_element_set_no": 999,
        "meta_rev_at_epoch": 87564,
        "meta_bstar": 0.0001315896,
        "meta_mean_motion_dot": 8.7e-07,
        "meta_mean_motion_ddot": 0,
        "tle_line1": "1 18362U 87080B   25350.80899983  .00000087  00000+0  13159-3 0  9998",
        "tle_line2": "2 18362  90.3753  79.8837 0104137 235.3453 241.7680 13.44449136875649"
      },
      "geometry": {
        "type": "Point",
        "coordinates": [
          80.0645335031143,
          -23.027470850719205
        ]
      }
    },
    {
      "type": "Feature",
      "properties": {
        "norad_id": 19070,
        "name": "OSCAR 23",
        "group": "nnss",
        "lat": -14.723867624581468,
        "lon": -163.54791649297002,
        "alt_km": 1032.3659761855542,
        "timestamp": "2025-12-17T09:00:17.416992+00:00",
        "meta_object_name": "OSCAR 23",
        "meta_object_id": "1988-033A",
        "meta_epoch": "2025-12-16T20:14:23.839872",
        "meta_mean_motion": 13.27787749,
        "meta_eccentricity": 0.01898676,
        "meta_inclination": 90.3209,
        "meta_ra_of_asc_node": 16.5199,
        "meta_arg_of_pericenter": 168.5202,
        "meta_mean_anomaly": 4.2173,
        "meta_ephemeris_type": 0,
        "meta_classification_type": "U",
        "meta_norad_cat_id": 19070,
        "meta_element_set_no": 999,
        "meta_rev_at_epoch": 82307,
        "meta_bstar": 0.00015315444,
        "meta_mean_motion_dot": 8.5e-07,
        "meta_mean_motion_ddot": 0,
        "tle_line1": "1 19070U 88033A   25350.84333148  .00000085  00000+0  15315-3 0  9998",
        "tle_line2": "2 19070  90.3209  16.5199 0189867 168.5202   4.2173 13.27787749823078"
      },
      "geometry": {
        "type": "Point",
        "coordinates": [
          -163.54791649297002,
          -14.723867624581468
        ]
      }
    }
  ]
}